OBJECT_NAME,OBJECT_ID,EPOCH,MEAN_MOTION,ECCENTRICITY,INCLINATION,RA_OF_ASC_NODE,ARG_OF_PERICENTER,MEAN_ANOMALY,EPHEMERIS_TYPE,CLASSIFICATION_TYPE,NORAD_CAT_ID,ELEMENT_SET_NO,REV_AT_EPOCH,BSTAR,MEAN_MOTION_DOT,MEAN_MOTION_DDOT
SAUDISAT 1C (SO-50),2002-058C,2026-07-04T16:29:59.668224,14.83086074,.0074817,64.5520,74.8394,259.1898,100.0781,0,U,27607,999,26705,.18211702E-3,.1404E-4,0
SAUDISAT 2,2004-025F,2026-07-05T05:33:27.135648,14.56694803,.00235863,98.5513,186.6801,239.9733,119.9124,0,U,28371,999,16837,.91112996E-4,.359E-5,0
SAUDISAT 3,2007-012B,2026-07-04T19:16:37.128864,14.71436735,.00148872,98.1462,136.2161,166.2917,193.8697,0,U,31118,999,3033,.77060953E-4,.427E-5,0
PISAT,2016-059B,2026-07-04T23:45:48.199680,14.69017629,.00298177,97.8183,185.6782,146.1425,214.1693,0,U,41784,999,52235,.23487793E-3,.1339E-4,0
FLYING LAPTOP,2017-042G,2026-07-05T07:34:37.972992,15.01267652,.00199732,97.4777,341.1600,63.9242,296.4036,0,U,42831,999,48917,.41620031E-3,.5315E-4,0
SALSAT,2020-068K,2026-07-04T17:44:40.784352,15.30063013,.00082227,97.8855,189.8756,233.3566,126.6918,0,U,46495,999,31804,.46989133E-3,.13612E-3,0
